{
  "type": "FeatureCollection",
  "features": [
    {
      "type": "Feature",
      "properties": {
        "norad_id": 33835,
        "name": "COSMOS 2251 DEB",
        "group": "cosmos-2251-debris",
        "lat": 38.63697064011602,
        "lon": -107.79061738369211,
        "alt_km": 644.2943541310988,
        "timestamp": "2025-12-20T22:39:11.017847+00:00",
        "meta_object_name": "COSMOS 2251 DEB",
        "meta_object_id": "1993-036CC",
        "meta_epoch": "2025-12-20T12:14:24.249696",
        "meta_mean_motion": 14.62319651,
        "meta_eccentricity": 0.00540667,
        "meta_inclination": 74.0578,
        "meta_ra_of_asc_node": 86.247,
        "meta_arg_of_pericenter": 137.5414,
        "meta_mean_anomaly": 238.7217,
        "meta_ephemeris_type": 0,
        "meta_classification_type": "U",
        "meta_norad_cat_id": 33835,
        "meta_element_set_no": 999,
        "meta_rev_at_epoch": 88903,
        "meta_bstar": 0.00060794085,
        "meta_mean_motion_dot": 3.105e-05,
        "meta_mean_motion_ddot": 0,
        "tle_line1": "1 33835U 93036CC  25354.51000289  .00003105  00000+0  60794-3 0  9994",
        "tle_line2": "2 33835  74.0578  86.2470 0054066 137.5414 238.7217 14.62319651889034"
      },
      "geometry": {
        "type": "Point",
        "coordinates": [
          -107.79061738369211,
          38.63697064011602
        ]
      }
    },
    {
      "type": "Feature",
      "properties": {
        "norad_id": 33836,
        "name": "COSMOS 2251 DEB",
        "group": "cosmos-2251-debris",
        "lat": -41.54381325463394,
        "lon": -131.97149025003912,
        "alt_km": 647.8709510851213,
        "timestamp": "2025-12-20T22:39:11.017857+00:00",
        "meta_object_name": "COSMOS 2251 DEB",
        "meta_object_id": "1993-036CD",
        "meta_epoch": "2025-12-20T10:39:36.743328",
        "meta_mean_motion": 14.79741719,
        "meta_eccentricity": 0.00226787,
        "meta_inclination": 73.9969,
        "meta_ra_of_asc_node": 243.7467,
        "meta_arg_of_pericenter": 94.0228,
        "meta_mean_anomaly": 81.7774,
        "meta_ephemeris_type": 0,
        "meta_classification_type": "U",
        "meta_norad_cat_id": 33836,
        "meta_element_set_no": 999,
        "meta_rev_at_epoch": 64202,
        "meta_bstar": 0.0007142356,
        "meta_mean_motion_dot": 5.363e-05,
        "meta_mean_motion_ddot": 0,
        "tle_line1": "1 33836U 93036CD  25354.44417527  .00005363  00000+0  71424-3 0  9994",
        "tle_line2": "2 33836  73.9969 243.7467 0022678  94.0228  81.7774 14.79741719642029"
      },
      "geometry": {
        "type": "Point",
        "coordinates": [
          -131.97149025003912,
          -41.54381325463394
        ]
      }
    },
    {
      "type": "Feature",
      "properties": {
        "norad_id": 33837,
        "name": "COSMOS 2251 DEB",
        "group": "cosmos-2251-debris",
        "lat": 19.10197327207411,
        "lon": -145.54583069661413,
        "alt_km": 727.7318612520075,
        "timestamp": "2025-12-20T22:39:11.017866+00:00",
        "meta_object_name": "COSMOS 2251 DEB",
        "meta_object_id": "1993-036CE",
        "meta_epoch": "2025-12-20T13:38:21.094944",
        "meta_mean_motion": 14.50716351,
        "meta_eccentricity": 0.00359056,
        "meta_inclination": 74.0125,
        "meta_ra_of_asc_node": 40.8592,
        "meta_arg_of_pericenter": 261.3278,
        "meta_mean_anomaly": 98.3814,
        "meta_ephemeris_type": 0,
        "meta_classification_type": "U",
        "meta_norad_cat_id": 33837,
        "meta_element_set_no": 999,
        "meta_rev_at_epoch": 88909,
        "meta_bstar": 0.000170419,
        "meta_mean_motion_dot": 6.47e-06,
        "meta_mean_motion_ddot": 0,
        "tle_line1": "1 33837U 93036CE  25354.56829971  .00000647  00000+0  17042-3 0  9994",
        "tle_line2": "2 33837  74.0125  40.8592 0035905 261.3278  98.3814 14.50716351889094"
      },
      "geometry": {
        "type": "Point",
        "coordinates": [
          -145.54583069661413,
          19.10197327207411
        ]
      }
    },
    {
      "type": "Feature",
      "properties": {
        "norad_id": 33838,
        "name": "COSMOS 2251 DEB",
        "group": "cosmos-2251-debris",
        "lat": -34.24691965902627,
        "lon": 123.21155877138118,
        "alt_km": 729.7674790372648,
        "timestamp": "2025-12-20T22:39:11.017876+00:00",
        "meta_object_name": "COSMOS 2251 DEB",
        "meta_object_id": "1993-036CF",
        "meta_epoch": "2025-12-20T09:42:46.395360",
        "meta_mean_motion": 14.48384547,
        "meta_eccentricity": 0.00275049,
        "meta_inclination": 74.036,
        "meta_ra_of_asc_node": 135.4587,
        "meta_arg_of_pericenter": 256.2914,
        "meta_mean_anomaly": 137.4758,
        "meta_ephemeris_type": 0,
        "meta_classification_type": "U",
        "meta_norad_cat_id": 33838,
        "meta_element_set_no": 999,
        "meta_rev_at_epoch": 88680,
        "meta_bstar": 0.00029293956,
        "meta_mean_motion_dot": 1.074e-05,
        "meta_mean_motion_ddot": 0,
        "tle_line1": "1 33838U 93036CF  25354.40470365  .00001074  00000+0  29294-3 0  9994",
        "tle_line2": "2 33838  74.0360 135.4587 0027504 256.2914 137.4758 14.48384547886800"
      },
      "geometry": {
        "type": "Point",
        "coordinates": [
          123.21155877138118,
          -34.24691965902627
        ]
      }
    },
    {
      "type": "Feature",
      "properties": {
        "norad_id": 33839,
        "name": "COSMOS 2251 DEB",
        "group": "cosmos-2251-debris",
        "lat": 4.756170500718802,
        "lon": -167.91956932114687,
        "alt_km": 654.2368401754356,
        "timestamp": "2025-12-20T22:39:11.017885+00:00",
        "meta_object_name": "COSMOS 2251 DEB",
        "meta_object_id": "1993-036CG",
        "meta_epoch": "2025-12-20T06:45:19.181664",
        "meta_mean_motion": 14.64437358,
        "meta_eccentricity": 0.00852999,
        "meta_inclination": 74.0376,
        "meta_ra_of_asc_node": 191.9883,
        "meta_arg_of_pericenter": 302.3345,
        "meta_mean_anomaly": 171.1071,
        "meta_ephemeris_type": 0,
        "meta_classification_type": "U",
        "meta_norad_cat_id": 33839,
        "meta_element_set_no": 999,
        "meta_rev_at_epoch": 89690,
        "meta_bstar": 0.00014426696,
        "meta_mean_motion_dot": 7.7e-06,
        "meta_mean_motion_ddot": 0,
        "tle_line1": "1 33839U 93036CG  25354.28147201  .00000770  00000+0  14427-3 0  9995",
        "tle_line2": "2 33839  74.0376 191.9883 0085299 302.3345 171.1071 14.64437358896902"
      },
      "geometry": {
        "type": "Point",
        "coordinates": [
          -167.91956932114687,
          4.756170500718802
        ]
      }
    },
    {
      "type": "Feature",
      "properties": {
        "norad_id": 33841,
        "name": "COSMOS 2251 DEB",
        "group": "cosmos-2251-debris",
        "lat": 29.755737634426126,
        "lon": -87.64523047577809,
        "alt_km": 753.9785250313425,
        "timestamp": "2025-12-20T22:39:11.017895+00:00",
        "meta_object_name": "COSMOS 2251 DEB",
        "meta_object_id": "1993-036CJ",
        "meta_epoch": "2025-12-20T04:50:53.448864",
        "meta_mean_motion": 14.3787057,
        "meta_eccentricity": 0.00208485,
        "meta_inclination": 74.0378,
        "meta_ra_of_asc_node": 264.3028,
        "meta_arg_of_pericenter": 343.2857,
        "meta_mean_anomaly": 169.0859,
        "meta_ephemeris_type": 0,
        "meta_classification_type": "U",
        "meta_norad_cat_id": 33841,
        "meta_element_set_no": 999,
        "meta_rev_at_epoch": 88221,
        "meta_bstar": 0.00015733139,
        "meta_mean_motion_dot": 4.49e-06,
        "meta_mean_motion_ddot": 0,
        "tle_line1": "1 33841U 93036CJ  25354.20200751  .00000449  00000+0  15733-3 0  9994",
        "tle_line2": "2 33841  74.0378 264.3028 0020848 343.2857 169.0859 14.37870570882210"
      },
      "geometry": {
        "type": "Point",
        "coordinates": [
          -87.64523047577809,
          29.755737634426126
        ]
      }
    },
    {
      "type": "Feature",
      "properties": {
        "norad_id": 33842,
        "name": "COSMOS 2251 DEB",
        "group": "cosmos-2251-debris",
        "lat": 63.79464471431756,
        "lon": -120.00150560412365,
        "alt_km": 759.2180234991438,
        "timestamp": "2025-12-20T22:39:11.017904+00:00",
        "meta_object_name": "COSMOS 2251 DEB",
        "meta_object_id": "1993-036CK",
        "meta_epoch": "2025-12-20T00:42:01.121760",
        "meta_mean_motion": 14.42710574,
        "meta_eccentricity": 0.00474815,
        "meta_inclination": 74.0319,
        "meta_ra_of_asc_node": 206.1214,
        "meta_arg_of_pericenter": 311.9968,
        "meta_mean_anomaly": 47.7149,
        "meta_ephemeris_type": 0,
        "meta_classification_type": "U",
        "meta_norad_cat_id": 33842,
        "meta_element_set_no": 999,
        "meta_rev_at_epoch": 88442,
        "meta_bstar": 0.00019230518,
        "meta_mean_motion_dot": 6.21e-06,
        "meta_mean_motion_ddot": 0,
        "tle_line1": "1 33842U 93036CK  25354.02917965  .00000621  00000+0  19231-3 0  9996",
        "tle_line2": "2 33842  74.0319 206.1214 0047481 311.9968  47.7149 14.42710574884426"
      },
      "geometry": {
        "type": "Point",
        "coordinates": [
          -120.00150560412365,
          63.79464471431756
        ]
      }
    }
  ]
}